SWARM A                 
1 39452U 13067B   26195.12100343  .00006820  00000+0  11496-3 0  9996
2 39452  87.3298  46.2268 0003309  94.2105 265.9535 15.51445775710429
SWARM C                 
1 39453U 13067C   26195.12090963  .00006368  00000+0  10729-3 0  9998
2 39453  87.3298  44.8076 0003305  94.1167 266.0472 15.51444500710386
BRITE-CA1 (TORONTO)     
1 40020U 14033L   26194.87563814  .00000531  00000+0  87417-4 0  9990
2 40020  97.9770 323.3165 0078341 190.4879 169.4699 14.72721023646145
OCO 2                   
1 40059U 14035A   26195.14242278  .00000172  00000+0  48123-4 0  9995
2 40059  98.2020 136.0260 0001443  81.2152 278.9210 14.57131767639975
BRITE-PL2 (HEWELIUSZ)   
1 40119U 14049B   26194.75028223  .00000648  00000+0  65131-4 0  9991
2 40119  97.9120 306.9592 0014480  26.9813 333.2156 14.94684980645411
MMS 1                   
1 40482U 15011A   26195.25001156 -.00001488  00000+0  00000+0 0  9999
2 40482  72.4901 348.4342 8303253 168.0388 178.9953  0.28344361  1351
MMS 2                   
1 40483U 15011B   26195.25001156 -.00001489  00000+0  00000+0 0  9991
2 40483  72.4907 348.4337 8305923 168.0413 178.9828  0.28344003  1351
MMS 3                   
1 40484U 15011C   26195.25001156 -.00001488  00000+0  00000+0 0  9991
2 40484  72.4938 348.4451 8304436 168.0493 178.9569  0.28344326  1326
MMS 4                   
1 40485U 15011D   26195.25001156 -.00001488  00000+0  00000+0 0  9992
2 40485  72.4895 348.4285 8304384 168.0592 178.9519  0.28344354  1388
ASTROSAT                
1 40930U 15052A   26195.06774172  .00001138  00000+0  56914-4 0  9997
2 40930   5.9977 321.8649 0007490  56.6348 303.4496 14.82551254583822
DAMPE                   
1 41173U 15078A   26195.16476935  .00000637  00000+0  23938-4 0  9995
2 41173  97.4559 200.7656 0011675 349.3147  10.7844 15.30851650588676
PISAT                   
1 41784U 16059B   26194.98115819  .00000476  00000+0  88556-4 0  9991
2 41784  97.8190 194.2840 0030397 118.5361 241.8911 14.69028460523674
HXMT (HUIYAN)           
1 42758U 17034A   26195.03606709  .00002357  00000+0  12173-3 0  9998
2 42758  43.0153  33.5161 0032417 313.6575  46.1587 15.18682725501743
FLYING LAPTOP           
1 42831U 17042G   26195.18031697  .00001917  00000+0  15288-3 0  9994
2 42831  97.4795 349.6965 0019737  35.8212 324.4332 15.01308283490501
ZHANGHENG 1-01 (CSES-1) 
1 43194U 18015C   26195.17991328  .00004116  00000+0  19054-3 0  9992
2 43194  97.6885   1.3787 0016298 168.3838 191.7776 15.20600678468747
SALSAT                  
1 46495U 20068K   26194.96022582  .00004471  00000+0  15597-3 0  9995
2 46495  97.8856 199.6626 0009069 197.5036 162.5892 15.30161661319452
IXPE                    
1 49954U 21121A   26195.16668980  .00010050  00000+0  53726-3 0  9996
2 49954   0.2297 112.7506 0007307 130.1776  49.4013 15.10486294  5261
SMILE                   
1 69123U 26109A   26190.74998429  .00001173  00000+0  00000+0 0  9999
2 69123  70.0471 206.6613 8323712 287.0422   0.1458  0.47504768    40
