OBJECT_NAME,OBJECT_ID,EPOCH,MEAN_MOTION,ECCENTRICITY,INCLINATION,RA_OF_ASC_NODE,ARG_OF_PERICENTER,MEAN_ANOMALY,EPHEMERIS_TYPE,CLASSIFICATION_TYPE,NORAD_CAT_ID,ELEMENT_SET_NO,REV_AT_EPOCH,BSTAR,MEAN_MOTION_DOT,MEAN_MOTION_DDOT
SWARM A,2013-067B,2026-07-14T02:54:14.696352,15.51445775,.0003309,87.3298,46.2268,94.2105,265.9535,0,U,39452,999,71042,.11496E-3,.682E-4,0
SWARM C,2013-067C,2026-07-14T02:54:06.592032,15.51444500,.0003305,87.3298,44.8076,94.1167,266.0472,0,U,39453,999,71038,.10729E-3,.6368E-4,0
BRITE-CA1 (TORONTO),2014-033L,2026-07-13T21:00:55.135296,14.72721023,.0078341,97.9770,323.3165,190.4879,169.4699,0,U,40020,999,64614,.87417E-4,.531E-5,0
OCO 2,2014-035A,2026-07-14T03:25:05.328192,14.57131767,.0001443,98.2020,136.0260,81.2152,278.9210,0,U,40059,999,63997,.48123E-4,.172E-5,0
BRITE-PL2 (HEWELIUSZ),2014-049B,2026-07-13T18:00:24.384672,14.94684980,.001448,97.9120,306.9592,26.9813,333.2156,0,U,40119,999,64541,.65131E-4,.648E-5,0
MMS 1,2015-011A,2026-07-14T06:00:00.998784,0.28344361,.8303253,72.4901,348.4342,168.0388,178.9953,0,U,40482,999,135,0,-.1488E-4,0
MMS 2,2015-011B,2026-07-14T06:00:00.998784,0.28344003,.8305923,72.4907,348.4337,168.0413,178.9828,0,U,40483,999,135,0,-.1489E-4,0
MMS 3,2015-011C,2026-07-14T06:00:00.998784,0.28344326,.8304436,72.4938,348.4451,168.0493,178.9569,0,U,40484,999,132,0,-.1488E-4,0
MMS 4,2015-011D,2026-07-14T06:00:00.998784,0.28344354,.8304384,72.4895,348.4285,168.0592,178.9519,0,U,40485,999,138,0,-.1488E-4,0
ASTROSAT,2015-052A,2026-07-14T01:37:32.884608,14.82551254,.000749,5.9977,321.8649,56.6348,303.4496,0,U,40930,999,58382,.56914E-4,.1138E-4,0
DAMPE,2015-078A,2026-07-14T03:57:16.071840,15.30851650,.0011675,97.4559,200.7656,349.3147,10.7844,0,U,41173,999,58867,.23938E-4,.637E-5,0
PISAT,2016-059B,2026-07-13T23:32:52.067616,14.69028460,.0030397,97.8190,194.2840,118.5361,241.8911,0,U,41784,999,52367,.88556E-4,.476E-5,0
HXMT (HUIYAN),2017-034A,2026-07-14T00:51:56.196576,15.18682725,.0032417,43.0153,33.5161,313.6575,46.1587,0,U,42758,999,50174,.12173E-3,.2357E-4,0
FLYING LAPTOP,2017-042G,2026-07-14T04:19:39.386208,15.01308283,.0019737,97.4795,349.6965,35.8212,324.4332,0,U,42831,999,49050,.15288E-3,.1917E-4,0
ZHANGHENG 1-01 (CSES-1),2018-015C,2026-07-14T04:19:04.507392,15.20600678,.0016298,97.6885,1.3787,168.3838,191.7776,0,U,43194,999,46874,.19054E-3,.4116E-4,0
SALSAT,2020-068K,2026-07-13T23:02:43.510848,15.30161661,.0009069,97.8856,199.6626,197.5036,162.5892,0,U,46495,999,31945,.15597E-3,.4471E-4,0
IXPE,2021-121A,2026-07-14T04:00:01.998720,15.10486294,.0007307,0.2297,112.7506,130.1776,49.4013,0,U,49954,999,526,.53726E-3,.1005E-3,0
SMILE,2026-109A,2026-07-09T17:59:58.642656,0.47504768,.8323712,70.0471,206.6613,287.0422,0.1458,0,U,69123,999,4,0,.1173E-4,0
